{"fetched_at":"2026-07-07T07:58:36.206Z","source":"https://celestrak.org/NORAD/elements/gp.php?NAME=ICEYE&FORMAT=JSON","constellation":"iceye","records":[{"OBJECT_NAME":"ICEYE-X2","OBJECT_ID":"2018-099AU","EPOCH":"2026-07-06T20:28:42.400128","CLASSIFICATION_TYPE":"U","MEAN_MOTION":15.17971904,"ECCENTRICITY":0.000892,"INCLINATION":97.4343,"RA_OF_ASC_NODE":241.3495,"ARG_OF_PERICENTER":226.389,"MEAN_ANOMALY":133.6605,"EPHEMERIS_TYPE":0,"NORAD_CAT_ID":43800,"ELEMENT_SET_NO":999,"REV_AT_EPOCH":41580,"BSTAR":0.00018326,"MEAN_MOTION_DOT":0.00003659,"MEAN_MOTION_DDOT":0},{"OBJECT_NAME":"ICEYE-X4","OBJECT_ID":"2019-038D","EPOCH":"2026-07-06T21:21:34.810272","CLASSIFICATION_TYPE":"U","MEAN_MOTION":15.29755027,"ECCENTRICITY":0.0012083,"INCLINATION":97.8752,"RA_OF_ASC_NODE":221.9655,"ARG_OF_PERICENTER":228.6282,"MEAN_ANOMALY":131.3919,"EPHEMERIS_TYPE":0,"NORAD_CAT_ID":44390,"ELEMENT_SET_NO":999,"REV_AT_EPOCH":38481,"BSTAR":0.00032825,"MEAN_MOTION_DOT":0.00009399,"MEAN_MOTION_DDOT":0},{"OBJECT_NAME":"ICEYE-X7","OBJECT_ID":"2020-068L","EPOCH":"2026-07-06T20:53:32.646336","CLASSIFICATION_TYPE":"U","MEAN_MOTION":15.31973586,"ECCENTRICITY":0.000532,"INCLINATION":97.7504,"RA_OF_ASC_NODE":155.2976,"ARG_OF_PERICENTER":250.8406,"MEAN_ANOMALY":109.2259,"EPHEMERIS_TYPE":0,"NORAD_CAT_ID":46496,"ELEMENT_SET_NO":999,"REV_AT_EPOCH":31780,"BSTAR":0.0003133,"MEAN_MOTION_DOT":0.00009594,"MEAN_MOTION_DDOT":0},{"OBJECT_NAME":"ICEYE-X6","OBJECT_ID":"2020-068M","EPOCH":"2026-07-06T21:02:40.525152","CLASSIFICATION_TYPE":"U","MEAN_MOTION":15.04630252,"ECCENTRICITY":0.0007871,"INCLINATION":98.0973,"RA_OF_ASC_NODE":182.4906,"ARG_OF_PERICENTER":33.9069,"MEAN_ANOMALY":326.2657,"EPHEMERIS_TYPE":0,"NORAD_CAT_ID":46497,"ELEMENT_SET_NO":999,"REV_AT_EPOCH":31619,"BSTAR":0.00027244,"MEAN_MOTION_DOT":0.00003763,"MEAN_MOTION_DDOT":0},{"OBJECT_NAME":"ICEYE-X21","OBJECT_ID":"2023-001AS","EPOCH":"2026-06-24T05:11:18.420288","CLASSIFICATION_TYPE":"U","MEAN_MOTION":16.24069885,"ECCENTRICITY":0.00123774,"INCLINATION":97.3001,"RA_OF_ASC_NODE":262.6152,"ARG_OF_PERICENTER":285.9702,"MEAN_ANOMALY":74.0225,"EPHEMERIS_TYPE":0,"NORAD_CAT_ID":55049,"ELEMENT_SET_NO":999,"REV_AT_EPOCH":19475,"BSTAR":0.000602142,"MEAN_MOTION_DOT":0.01585954,"MEAN_MOTION_DDOT":0.000002396838},{"OBJECT_NAME":"ICEYE-X25","OBJECT_ID":"2023-084AH","EPOCH":"2026-07-06T20:43:04.043136","CLASSIFICATION_TYPE":"U","MEAN_MOTION":15.62238917,"ECCENTRICITY":0.0003843,"INCLINATION":97.5906,"RA_OF_ASC_NODE":335.4949,"ARG_OF_PERICENTER":211.87,"MEAN_ANOMALY":148.2326,"EPHEMERIS_TYPE":0,"NORAD_CAT_ID":56963,"ELEMENT_SET_NO":999,"REV_AT_EPOCH":17104,"BSTAR":0.00048708,"MEAN_MOTION_DOT":0.00042916,"MEAN_MOTION_DDOT":0},{"OBJECT_NAME":"ICEYE-X31","OBJECT_ID":"2023-174AJ","EPOCH":"2026-07-06T19:53:10.812768","CLASSIFICATION_TYPE":"U","MEAN_MOTION":15.3498673,"ECCENTRICITY":0.0001871,"INCLINATION":97.3769,"RA_OF_ASC_NODE":263.571,"ARG_OF_PERICENTER":213.2026,"MEAN_ANOMALY":146.91,"EPHEMERIS_TYPE":0,"NORAD_CAT_ID":58288,"ELEMENT_SET_NO":999,"REV_AT_EPOCH":14776,"BSTAR":0.00042307,"MEAN_MOTION_DOT":0.00014289,"MEAN_MOTION_DDOT":0},{"OBJECT_NAME":"ICEYE-X34","OBJECT_ID":"2023-174AQ","EPOCH":"2026-07-06T04:59:47.372352","CLASSIFICATION_TYPE":"U","MEAN_MOTION":15.69137384,"ECCENTRICITY":0.0001781,"INCLINATION":97.3863,"RA_OF_ASC_NODE":279.37,"ARG_OF_PERICENTER":179.021,"MEAN_ANOMALY":181.1056,"EPHEMERIS_TYPE":0,"NORAD_CAT_ID":58294,"ELEMENT_SET_NO":999,"REV_AT_EPOCH":14872,"BSTAR":0.001396398,"MEAN_MOTION_DOT":0.00164527,"MEAN_MOTION_DDOT":0},{"OBJECT_NAME":"ICEYE-X35","OBJECT_ID":"2023-174AY","EPOCH":"2026-07-06T21:19:25.391712","CLASSIFICATION_TYPE":"U","MEAN_MOTION":15.545087,"ECCENTRICITY":0.0008413,"INCLINATION":97.378,"RA_OF_ASC_NODE":273.0296,"ARG_OF_PERICENTER":133.8415,"MEAN_ANOMALY":226.3535,"EPHEMERIS_TYPE":0,"NORAD_CAT_ID":58302,"ELEMENT_SET_NO":999,"REV_AT_EPOCH":14840,"BSTAR":0.00074519,"MEAN_MOTION_DOT":0.00049269,"MEAN_MOTION_DDOT":0},{"OBJECT_NAME":"ICEYE-X38","OBJECT_ID":"2024-043C","EPOCH":"2026-07-06T19:50:19.582656","CLASSIFICATION_TYPE":"U","MEAN_MOTION":15.13041142,"ECCENTRICITY":0.0003015,"INCLINATION":97.8428,"RA_OF_ASC_NODE":332.1181,"ARG_OF_PERICENTER":43.0429,"MEAN_ANOMALY":317.1036,"EPHEMERIS_TYPE":0,"NORAD_CAT_ID":59100,"ELEMENT_SET_NO":999,"REV_AT_EPOCH":11464,"BSTAR":0.00024273,"MEAN_MOTION_DOT":0.0000422,"MEAN_MOTION_DDOT":0},{"OBJECT_NAME":"ICEYE-X37","OBJECT_ID":"2024-043E","EPOCH":"2026-07-06T20:17:10.158144","CLASSIFICATION_TYPE":"U","MEAN_MOTION":15.06258754,"ECCENTRICITY":0.0013751,"INCLINATION":97.8341,"RA_OF_ASC_NODE":325.1588,"ARG_OF_PERICENTER":305.6358,"MEAN_ANOMALY":54.3587,"EPHEMERIS_TYPE":0,"NORAD_CAT_ID":59102,"ELEMENT_SET_NO":999,"REV_AT_EPOCH":12804,"BSTAR":0.00020433,"MEAN_MOTION_DOT":0.00002939,"MEAN_MOTION_DDOT":0},{"OBJECT_NAME":"ICEYE-X36","OBJECT_ID":"2024-043F","EPOCH":"2026-07-06T20:06:29.670624","CLASSIFICATION_TYPE":"U","MEAN_MOTION":15.07193918,"ECCENTRICITY":0.0004534,"INCLINATION":97.8395,"RA_OF_ASC_NODE":326.2627,"ARG_OF_PERICENTER":245.674,"MEAN_ANOMALY":114.4014,"EPHEMERIS_TYPE":0,"NORAD_CAT_ID":59103,"ELEMENT_SET_NO":999,"REV_AT_EPOCH":12810,"BSTAR":0.00019911,"MEAN_MOTION_DOT":0.00002931,"MEAN_MOTION_DDOT":0},{"OBJECT_NAME":"ICEYE-X43","OBJECT_ID":"2024-149BZ","EPOCH":"2026-07-06T17:04:51.127968","CLASSIFICATION_TYPE":"U","MEAN_MOTION":14.99764054,"ECCENTRICITY":0.0007183,"INCLINATION":97.6814,"RA_OF_ASC_NODE":264.4145,"ARG_OF_PERICENTER":23.252,"MEAN_ANOMALY":336.9027,"EPHEMERIS_TYPE":0,"NORAD_CAT_ID":60539,"ELEMENT_SET_NO":999,"REV_AT_EPOCH":10304,"BSTAR":0.00022072,"MEAN_MOTION_DOT":0.0000267,"MEAN_MOTION_DDOT":0},{"OBJECT_NAME":"ICEYE-X39","OBJECT_ID":"2024-149CG","EPOCH":"2026-07-06T16:33:18.711360","CLASSIFICATION_TYPE":"U","MEAN_MOTION":15.00030277,"ECCENTRICITY":0.0006944,"INCLINATION":97.6763,"RA_OF_ASC_NODE":264.4489,"ARG_OF_PERICENTER":69.0679,"MEAN_ANOMALY":291.1287,"EPHEMERIS_TYPE":0,"NORAD_CAT_ID":60546,"ELEMENT_SET_NO":999,"REV_AT_EPOCH":10304,"BSTAR":0.00030278,"MEAN_MOTION_DOT":0.00003711,"MEAN_MOTION_DDOT":0},{"OBJECT_NAME":"ICEYE-X33","OBJECT_ID":"2024-149CJ","EPOCH":"2026-07-06T16:52:19.306272","CLASSIFICATION_TYPE":"U","MEAN_MOTION":15.00917085,"ECCENTRICITY":0.0001923,"INCLINATION":97.7331,"RA_OF_ASC_NODE":266.7431,"ARG_OF_PERICENTER":77.0577,"MEAN_ANOMALY":283.0861,"EPHEMERIS_TYPE":0,"NORAD_CAT_ID":60548,"ELEMENT_SET_NO":999,"REV_AT_EPOCH":10313,"BSTAR":0.00034282,"MEAN_MOTION_DOT":0.00004307,"MEAN_MOTION_DDOT":0}]}
