ICEYE-X2                
1 43800U 18099AU  26187.85326852  .00003659  00000+0  18326-3 0  9990
2 43800  97.4343 241.3495 0008920 226.3890 133.6605 15.17971904415800
ICEYE-X4                
1 44390U 19038D   26187.88998623  .00009399  00000+0  32825-3 0  9990
2 44390  97.8752 221.9655 0012083 228.6282 131.3919 15.29755027384818
ICEYE-X7                
1 46496U 20068L   26187.87051674  .00009594  00000+0  31330-3 0  9996
2 46496  97.7504 155.2976 0005320 250.8406 109.2259 15.31973586317808
ICEYE-X6                
1 46497U 20068M   26187.87685793  .00003763  00000+0  27244-3 0  9993
2 46497  98.0973 182.4906 0007871  33.9069 326.2657 15.04630252316190
ICEYE-X21               
1 55049U 23001AS  26175.21618542  .01585954  23968-5  60214-3 0  9995
2 55049  97.3001 262.6152 0012377 285.9702  74.0225 16.24069885194757
ICEYE-X25               
1 56963U 23084AH  26187.86324124  .00042916  00000+0  48708-3 0  9991
2 56963  97.5906 335.4949 0003843 211.8700 148.2326 15.62238917171044
ICEYE-X31               
1 58288U 23174AJ  26187.82859737  .00014289  00000+0  42307-3 0  9993
2 58288  97.3769 263.5710 0001871 213.2026 146.9100 15.34986730147763
ICEYE-X34               
1 58294U 23174AQ  26187.20818718  .00164527  00000+0  13964-2 0  9993
2 58294  97.3863 279.3700 0001781 179.0210 181.1056 15.69137384148722
ICEYE-X35               
1 58302U 23174AY  26187.88848833  .00049269  00000+0  74519-3 0  9997
2 58302  97.3780 273.0296 0008413 133.8415 226.3535 15.54508700148402
ICEYE-X38               
1 59100U 24043C   26187.82661554  .00004220  00000+0  24273-3 0  9997
2 59100  97.8428 332.1181 0003015  43.0429 317.1036 15.13041142114644
ICEYE-X37               
1 59102U 24043E   26187.84525646  .00002939  00000+0  20433-3 0  9991
2 59102  97.8341 325.1588 0013751 305.6358  54.3587 15.06258754128040
ICEYE-X36               
1 59103U 24043F   26187.83784341  .00002931  00000+0  19911-3 0  9991
2 59103  97.8395 326.2627 0004534 245.6740 114.4014 15.07193918128104
ICEYE-X43               
1 60539U 24149BZ  26187.71170287  .00002670  00000+0  22072-3 0  9990
2 60539  97.6814 264.4145 0007183  23.2520 336.9027 14.99764054103046
ICEYE-X39               
1 60546U 24149CG  26187.68979990  .00003711  00000+0  30278-3 0  9996
2 60546  97.6763 264.4489 0006944  69.0679 291.1287 15.00030277103041
ICEYE-X33               
1 60548U 24149CJ  26187.70300123  .00004307  00000+0  34282-3 0  9998
2 60548  97.7331 266.7431 0001923  77.0577 283.0861 15.00917085103134
